[{"OBJECT_NAME":"SITRO-AIS 9 (SHCHUKIN)","OBJECT_ID":"2023-091AM","EPOCH":"2026-03-09T22:43:02.581824","MEAN_MOTION":15.34387966,"ECCENTRICITY":0.00083665,"INCLINATION":97.518,"RA_OF_ASC_NODE":137.1581,"ARG_OF_PERICENTER":74.1415,"MEAN_ANOMALY":286.0749,"EPHEMERIS_TYPE":0,"CLASSIFICATION_TYPE":"U","NORAD_CAT_ID":57201,"ELEMENT_SET_NO":999,"REV_AT_EPOCH":14951,"BSTAR":0.00072073044,"MEAN_MOTION_DOT":0.00023992,"MEAN_MOTION_DDOT":0},{"OBJECT_NAME":"JD 3","OBJECT_ID":"1984-012F","EPOCH":"2026-03-09T20:12:08.260128","MEAN_MOTION":13.88723209,"ECCENTRICITY":0.07313396,"INCLINATION":63.3002,"RA_OF_ASC_NODE":240.1222,"ARG_OF_PERICENTER":124.9076,"MEAN_ANOMALY":242.2952,"EPHEMERIS_TYPE":0,"CLASSIFICATION_TYPE":"U","NORAD_CAT_ID":14795,"ELEMENT_SET_NO":999,"REV_AT_EPOCH":34086,"BSTAR":0.00089007399,"MEAN_MOTION_DOT":0.00010672,"MEAN_MOTION_DDOT":0}]
